SWOT                    
1 54754U 22173A   22358.05520425  .00137968  00000+0  76186-1 0  9995
2 54754  77.5921 315.7001 0000493 158.8368 200.9275 14.10434132  1065
